[{"OBJECT_NAME":"STARLINK-11129 [DTC]","OBJECT_ID":"2024-112A","EPOCH":"2026-03-09T17:38:22.865568","MEAN_MOTION":15.69703212,"ECCENTRICITY":6.664e-5,"INCLINATION":53.1587,"RA_OF_ASC_NODE":266.3726,"ARG_OF_PERICENTER":118.5927,"MEAN_ANOMALY":241.5158,"EPHEMERIS_TYPE":0,"CLASSIFICATION_TYPE":"U","NORAD_CAT_ID":60038,"ELEMENT_SET_NO":999,"REV_AT_EPOCH":10098,"BSTAR":-4.418583e-6,"MEAN_MOTION_DOT":-1.123e-5,"MEAN_MOTION_DDOT":0},{"OBJECT_NAME":"CZ-2D DEB","OBJECT_ID":"2005-024K","EPOCH":"2026-03-07T20:58:14.771712","MEAN_MOTION":15.70813446,"ECCENTRICITY":0.0005756,"INCLINATION":97.1809,"RA_OF_ASC_NODE":100.1703,"ARG_OF_PERICENTER":144.4044,"MEAN_ANOMALY":215.7604,"EPHEMERIS_TYPE":0,"CLASSIFICATION_TYPE":"U","NORAD_CAT_ID":35271,"ELEMENT_SET_NO":999,"REV_AT_EPOCH":8871,"BSTAR":0.00070506615,"MEAN_MOTION_DOT":0.00088213,"MEAN_MOTION_DDOT":0}]
